H1 CPF  1  HTS 2022  6 20 12  6711 larets           NONE
H2  0304206 5557    27944 2022 06 20  0  0  0 2022 06 25  0  0  0   180 1 1  0 0 0
H5  0.0560 
H9 
10 0 59753  57960.00000  0   -4087205.318    3136462.329    4831897.506
10 0 59753  58140.00000  0   -3100884.561    2780024.599    5704077.276
10 0 59753  58320.00000  0   -2013129.268    2295526.642    6367858.041
10 0 59753  58500.00000  0    -866610.069    1698503.906    6799172.110
10 0 59753  58680.00000  0     294422.759    1009664.429    6982405.146
10 0 59753  58860.00000  0    1425835.509     254165.272    6910918.085
10 0 59753  59040.00000  0    2485268.953    -539299.186    6587269.874
10 0 59753  59220.00000  0    3433708.362   -1339572.810    6023139.141
10 0 59753  59400.00000  0    4236921.714   -2114245.946    5238940.951
10 0 59753  59580.00000  0    4866716.375   -2830957.752    4263137.892
10 0 59753  59760.00000  0    5301969.065   -3458746.924    3131259.085
10 0 59753  59940.00000  0    5529386.215   -3969396.215    1884638.457
10 0 59753  60120.00000  0    5543947.027   -4338704.542     568908.963
10 0 59753  60300.00000  0    5349005.319   -4547623.665    -767690.216
10 0 59753  60480.00000  0    4956040.051   -4583196.323   -2076127.487
10 0 59753  60660.00000  0    4384061.017   -4439241.372   -3308432.102
10 0 59753  60840.00000  0    3658701.912   -4116749.713   -4419497.712
10 0 59753  61020.00000  0    2811052.795   -3623972.620   -5368755.731
10 0 59753  61200.00000  0    1876296.344   -2976203.743   -6121647.214
10 0 59753  61380.00000  0     892224.135   -2195276.297   -6650843.530
10 0 59753  61560.00000  0    -102303.213   -1308799.084   -6937193.208
10 0 59753  61740.00000  0   -1068889.407    -349160.075   -6970364.955
10 0 59753  61920.00000  0   -1971070.089     647657.618   -6749184.608
10 0 59753  62100.00000  0   -2775673.755    1643411.675   -6281668.193
10 0 59753  62280.00000  0   -3454032.391    2599050.200   -5584753.124
10 0 59753  62460.00000  0   -3983011.491    3476234.104   -4683731.920
10 0 59753  62640.00000  0   -4345825.592    4238882.559   -3611384.037
10 0 59753  62820.00000  0   -4532596.647    4854676.408   -2406820.668
10 0 59753  63000.00000  0   -4540631.994    5296453.436   -1114078.135
10 0 59753  63180.00000  0   -4374407.772    5543428.445     219499.807
10 0 59753  63360.00000  0   -4045246.659    5582169.854    1545032.579
10 0 59753  63540.00000  0   -3570704.506    5407275.754    2813945.659
10 0 59753  63720.00000  0   -2973693.013    5021708.472    3979800.789
10 0 59753  63900.00000  0   -2281390.322    4436776.586    5000019.773
10 0 59753  64080.00000  0   -1524004.800    3671774.491    5837437.958
10 0 59753  64260.00000  0    -733453.112    2753299.372    6461630.916
10 0 59753  64440.00000  0      57982.620    1714284.513    6849970.813
10 0 59753  64620.00000  0     818960.633     592797.443    6988395.567
10 0 59753  64800.00000  0    1520305.481    -569355.046    6871880.332
10 0 59753  64980.00000  0    2136112.500   -1728169.453    6504608.460
10 0 59753  65160.00000  0    2644698.787   -2839094.313    5899839.249
10 0 59753  65340.00000  0    3029373.055   -3858735.150    5079470.112
10 0 59753  65520.00000  0    3278996.267   -4746558.206    4073294.449
10 0 59753  65700.00000  0    3388313.611   -5466531.140    2917967.192
10 0 59753  65880.00000  0    3358039.457   -5988629.815    1655696.674
10 0 59753  66060.00000  0    3194685.327   -6290136.726     332702.798
10 0 59753  66240.00000  0    2910138.652   -6356661.549   -1002499.526
10 0 59753  66420.00000  0    2521008.612   -6182830.478   -2300928.039
10 0 59753  66600.00000  0    2047767.308   -5772594.599   -3514985.411
10 0 59753  66780.00000  0    1513733.696   -5139144.734   -4600249.707
10 0 59753  66960.00000  0     943958.572   -4304434.802   -5517115.472
10 0 59753  67140.00000  0     364075.423   -3298357.267   -6232223.209
10 0 59753  67320.00000  0    -200832.388   -2157615.219   -6719634.393
10 0 59753  67500.00000  0    -727297.387    -924344.594   -6961720.481
10 0 59753  67680.00000  0   -1194423.612     355456.544   -6949753.361
10 0 59753  67860.00000  0   -1584701.263    1633636.350   -6684189.539
10 0 59753  68040.00000  0   -1884655.509    2861680.249   -6174649.866
10 0 59753  68220.00000  0   -2085310.787    3992536.369   -5439599.992
10 0 59753  68400.00000  0   -2182457.866    4982422.783   -4505728.826
10 0 59753  68580.00000  0   -2176713.515    5792551.781   -3407027.398
10 0 59753  68760.00000  0   -2073365.497    6390695.439   -2183585.081
10 0 59753  68940.00000  0   -1882007.603    6752523.923    -880141.517
10 0 59753  69120.00000  0   -1615981.512    6862647.396     455562.193
10 0 59753  69300.00000  0   -1291649.369    6715307.164    1774568.413
10 0 59753  69480.00000  0    -927531.811    6314660.418    3028555.703
10 0 59753  69660.00000  0    -543359.245    5674640.153    4171650.759
10 0 59753  69840.00000  0    -159091.706    4818421.782    5162125.885
10 0 59753  70020.00000  0     206047.140    3777515.139    5963920.000
10 0 59753  70200.00000  0     534473.351    2590543.160    6547914.634
10 0 59753  70380.00000  0     811039.860    1301767.608    6892944.436
10 0 59753  70560.00000  0    1023698.847     -40578.778    6986515.031
10 0 59753  70740.00000  0    1164005.926   -1386088.858    6825221.150
10 0 59753  70920.00000  0    1227449.806   -2684054.552    6414866.453
10 0 59753  71100.00000  0    1213596.923   -3885364.695    5770276.170
10 0 59753  71280.00000  0    1126045.301   -4944363.601    4914799.265
10 0 59753  71460.00000  0     972193.340   -5820604.113    3879514.535
10 0 59753  71640.00000  0     762829.976   -6480443.559    2702151.280
10 0 59753  71820.00000  0     511558.109   -6898403.617    1425738.495
10 0 59753  72000.00000  0     234074.942   -7058224.007      97031.330
10 0 59753  72180.00000  0     -52656.169   -6953554.759   -1235235.470
10 0 59753  72360.00000  0    -331299.168   -6588227.684   -2522191.717
10 0 59753  72540.00000  0    -585051.991   -5976098.501   -3716674.927
10 0 59753  72720.00000  0    -798521.712   -5140475.647   -4774996.846
10 0 59753  72900.00000  0    -958522.422   -4113163.087   -5658553.556
10 0 59753  73080.00000  0   -1054755.326   -2933179.455   -6335213.820
10 0 59753  73260.00000  0   -1080340.340   -1645219.998   -6780446.391
10 0 59753  73440.00000  0   -1032179.407    -297931.266   -6978156.727
10 0 59753  73620.00000  0    -911139.765    1057931.096   -6921222.173
10 0 59753  73800.00000  0    -722049.842    2371398.299   -6611722.174
10 0 59753  73980.00000  0    -473510.685    3593182.126   -6060867.125
10 0 59753  74160.00000  0    -177526.755    4677517.232   -5288626.364
10 0 59753  74340.00000  0     151033.415    5583890.904   -4323051.618
10 0 59753  74520.00000  0     495125.820    6278598.974   -3199305.765
10 0 59753  74700.00000  0     836343.649    6736059.799   -1958413.727
10 0 59753  74880.00000  0    1155818.845    6939823.304    -645772.116
10 0 59753  75060.00000  0    1435169.598    6883217.941     690533.755
10 0 59753  75240.00000  0    1657443.424    6569591.279    2001534.101
10 0 59753  75420.00000  0    1808002.692    6012133.153    3239214.389
10 0 59753  75600.00000  0    1875309.471    5233296.231    4358311.376
10 0 59753  75780.00000  0    1851569.082    4263840.589    5317990.604
10 0 59753  75960.00000  0    1733198.556    3141551.412    6083328.849
10 0 59753  76140.00000  0    1521101.750    1909714.246    6626543.691
10 0 59753  76320.00000  0    1220744.738     615417.022    6927954.265
10 0 59753  76500.00000  0     842028.131    -692256.343    6976644.959
10 0 59753  76680.00000  0     398962.602   -1964070.931    6770833.235
10 0 59753  76860.00000  0     -90845.598   -3152478.477    6317935.322
10 0 59753  77040.00000  0    -606882.780   -4213386.764    5634318.763
10 0 59753  77220.00000  0   -1126562.319   -5107796.689    4744751.284
10 0 59753  77400.00000  0   -1626184.727   -5803268.173    3681565.532
10 0 59753  77580.00000  0   -2081991.628   -6275159.738    2483528.531
10 0 59753  77760.00000  0   -2471264.063   -6507567.558    1194445.988
10 0 59753  77940.00000  0   -2773411.339   -6493917.783    -138449.796
10 0 59753  78120.00000  0   -2970990.853   -6237176.059   -1466267.594
10 0 59753  78300.00000  0   -3050606.597   -5749656.893   -2740302.750
10 0 59753  78480.00000  0   -3003638.524   -5052439.060   -3913876.677
10 0 59753  78660.00000  0   -2826760.894   -4174417.553   -4944083.276
10 0 59753  78840.00000  0   -2522225.678   -3151052.551   -5793361.855
10 0 59753  79020.00000  0   -2097905.261   -2022887.178   -6430843.033
10 0 59753  79200.00000  0   -1567093.473    -833903.839   -6833428.193
10 0 59753  79380.00000  0    -948076.853     370207.541   -6986572.066
10 0 59753  79560.00000  0    -263499.101    1543797.829   -6884761.751
10 0 59753  79740.00000  0     460462.465    2642968.782   -6531695.818
10 0 59753  79920.00000  0    1195084.401    3627199.634   -5940163.642
10 0 59753  80100.00000  0    1910224.203    4460842.926   -5131617.315
10 0 59753  80280.00000  0    2575545.181    5114435.913   -4135441.741
10 0 59753  80460.00000  0    3161796.846    5565783.668   -2987932.143
10 0 59753  80640.00000  0    3642097.225    5800762.536   -1730999.922
10 0 59753  80820.00000  0    3993159.121    5813802.422    -410643.530
10 0 59753  81000.00000  0    4196393.100    5608016.387     924761.498
10 0 59753  81180.00000  0    4238827.824    5194963.890    2226278.100
10 0 59753  81360.00000  0    4113800.007    4594063.019    3446245.257
10 0 59753  81540.00000  0    3821376.680    3831680.392    4540062.883
10 0 59753  81720.00000  0    3368490.074    2939947.998    5467834.632
10 0 59753  81900.00000  0    2768780.809    1955377.074    6195812.099
10 0 59753  82080.00000  0    2042165.253     917335.849    6697579.622
10 0 59753  82260.00000  0    1214154.725    -133533.876    6954960.632
99
